[{"OBJECT_NAME":"STARLINK-3045","OBJECT_ID":"2021-082AV","EPOCH":"2026-03-09T21:20:07.505664","MEAN_MOTION":14.98326751,"ECCENTRICITY":0.00019841,"INCLINATION":69.9985,"RA_OF_ASC_NODE":273.9429,"ARG_OF_PERICENTER":269.7131,"MEAN_ANOMALY":90.3801,"EPHEMERIS_TYPE":0,"CLASSIFICATION_TYPE":"U","NORAD_CAT_ID":49173,"ELEMENT_SET_NO":999,"REV_AT_EPOCH":24650,"BSTAR":-2.5676417e-5,"MEAN_MOTION_DOT":-3.99e-6,"MEAN_MOTION_DDOT":0},{"OBJECT_NAME":"PEGASUS DEB","OBJECT_ID":"1994-029LK","EPOCH":"2026-03-09T22:18:47.115072","MEAN_MOTION":14.54268919,"ECCENTRICITY":0.03111088,"INCLINATION":81.4299,"RA_OF_ASC_NODE":55.7262,"ARG_OF_PERICENTER":293.7836,"MEAN_ANOMALY":63.1023,"EPHEMERIS_TYPE":0,"CLASSIFICATION_TYPE":"U","NORAD_CAT_ID":24236,"ELEMENT_SET_NO":999,"REV_AT_EPOCH":52042,"BSTAR":0.0019719225,"MEAN_MOTION_DOT":0.00016098,"MEAN_MOTION_DDOT":0}]
